STARLINK-31071          
1 58602U 23200P   26068.25331882 -.00001687  00000+0 -51840-4 0  9997
2 58602  43.0003  11.1431 0000428 287.7790  72.3015 15.27562352125428
NUSAT-48 (HENRIETTA LE*)
1 60498U 24149AG  26068.80506098  .00012988  00000+0  45212-3 0  9999
2 60498  97.3923 150.8264 0002754 263.3026  96.7901 15.29812597 86946
